CELESTIS-17 & SHERPA-FX1
1 47486U 21006CB  26068.64311433  .00007207  00000+0  24301-3 0  9993
2 47486  97.2397 112.1052 0006630 178.1385 181.9882 15.30994801284065
STARLINK-32679          
1 62507U 25003W   26068.01466806  .00036432  00000+0  13254-2 0  9997
2 62507  43.0015 293.1482 0001296 271.2196  88.8507 15.27616229 66560
